{
  "type": "FeatureCollection",
  "features": [
    {
      "type": "Feature",
      "properties": {
        "norad_id": 32422,
        "name": "FENGYUN 1C DEB",
        "group": "fengyun-1c-debris",
        "lat": 81.83101926068615,
        "lon": 7.2687943222950535,
        "alt_km": 1066.8734836367557,
        "timestamp": "2025-12-07T07:31:36.584911+00:00",
        "meta_object_name": "FENGYUN 1C DEB",
        "meta_object_id": "1999-025DAJ",
        "meta_epoch": "2025-12-04T15:31:47.977248",
        "meta_mean_motion": 13.97990532,
        "meta_eccentricity": 0.0298457,
        "meta_inclination": 97.839,
        "meta_ra_of_asc_node": 111.3103,
        "meta_arg_of_pericenter": 315.8361,
        "meta_mean_anomaly": 41.9322,
        "meta_ephemeris_type": 0,
        "meta_classification_type": "U",
        "meta_norad_cat_id": 32422,
        "meta_element_set_no": 999,
        "meta_rev_at_epoch": 63020,
        "meta_bstar": 0.00049372,
        "meta_mean_motion_dot": 9.86e-06,
        "meta_mean_motion_ddot": 0,
        "tle_line1": "1 32422U 99025DAJ 25338.64708307  .00000986  00000+0  49372-3 0  9994",
        "tle_line2": "2 32422  97.8390 111.3103 0298457 315.8361  41.9322 13.97990532630203"
      },
      "geometry": {
        "type": "Point",
        "coordinates": [
          7.2687943222950535,
          81.83101926068615
        ]
      }
    },
    {
      "type": "Feature",
      "properties": {
        "norad_id": 32425,
        "name": "FENGYUN 1C DEB",
        "group": "fengyun-1c-debris",
        "lat": 27.687241149820526,
        "lon": 127.44415563562889,
        "alt_km": 780.3375352286739,
        "timestamp": "2025-12-07T07:31:36.584921+00:00",
        "meta_object_name": "FENGYUN 1C DEB",
        "meta_object_id": "1999-025DAM",
        "meta_epoch": "2025-12-06T04:16:42.340512",
        "meta_mean_motion": 14.16717033,
        "meta_eccentricity": 0.02322591,
        "meta_inclination": 96.701,
        "meta_ra_of_asc_node": 130.1238,
        "meta_arg_of_pericenter": 319.3009,
        "meta_mean_anomaly": 39.1014,
        "meta_ephemeris_type": 0,
        "meta_classification_type": "U",
        "meta_norad_cat_id": 32425,
        "meta_element_set_no": 999,
        "meta_rev_at_epoch": 69442,
        "meta_bstar": 0.00073001869,
        "meta_mean_motion_dot": 1.869e-05,
        "meta_mean_motion_ddot": 0,
        "tle_line1": "1 32425U 99025DAM 25340.17826783  .00001869  00000+0  73002-3 0  9995",
        "tle_line2": "2 32425  96.7010 130.1238 0232259 319.3009  39.1014 14.16717033694423"
      },
      "geometry": {
        "type": "Point",
        "coordinates": [
          127.44415563562889,
          27.687241149820526
        ]
      }
    },
    {
      "type": "Feature",
      "properties": {
        "norad_id": 32430,
        "name": "FENGYUN 1C DEB",
        "group": "fengyun-1c-debris",
        "lat": -17.673209540518997,
        "lon": 9.357318800258357,
        "alt_km": 852.5092657756823,
        "timestamp": "2025-12-07T07:31:36.584933+00:00",
        "meta_object_name": "FENGYUN 1C DEB",
        "meta_object_id": "1999-025DAS",
        "meta_epoch": "2025-11-28T08:01:51.379680",
        "meta_mean_motion": 13.700237,
        "meta_eccentricity": 0.03669598,
        "meta_inclination": 98.6995,
        "meta_ra_of_asc_node": 358.4209,
        "meta_arg_of_pericenter": 308.4,
        "meta_mean_anomaly": 48.4718,
        "meta_ephemeris_type": 0,
        "meta_classification_type": "U",
        "meta_norad_cat_id": 32430,
        "meta_element_set_no": 999,
        "meta_rev_at_epoch": 91006,
        "meta_bstar": 0.0013292219,
        "meta_mean_motion_dot": 1.837e-05,
        "meta_mean_motion_ddot": 0,
        "tle_line1": "1 32430U 99025DAS 25332.33462245  .00001837  00000+0  13292-2 0  9998",
        "tle_line2": "2 32430  98.6995 358.4209 0366959 308.4000  48.4718 13.70023700910065"
      },
      "geometry": {
        "type": "Point",
        "coordinates": [
          9.357318800258357,
          -17.673209540518997
        ]
      }
    },
    {
      "type": "Feature",
      "properties": {
        "norad_id": 32432,
        "name": "FENGYUN 1C DEB",
        "group": "fengyun-1c-debris",
        "lat": 12.672984451871462,
        "lon": 15.78387613686374,
        "alt_km": 639.6290001626576,
        "timestamp": "2025-12-07T07:31:36.584944+00:00",
        "meta_object_name": "FENGYUN 1C DEB",
        "meta_object_id": "1999-025DAU",
        "meta_epoch": "2025-12-06T08:19:16.697856",
        "meta_mean_motion": 14.52336572,
        "meta_eccentricity": 0.01729865,
        "meta_inclination": 98.17,
        "meta_ra_of_asc_node": 16.6935,
        "meta_arg_of_pericenter": 325.5072,
        "meta_mean_anomaly": 33.4994,
        "meta_ephemeris_type": 0,
        "meta_classification_type": "U",
        "meta_norad_cat_id": 32432,
        "meta_element_set_no": 999,
        "meta_rev_at_epoch": 70602,
        "meta_bstar": 0.0028068549,
        "meta_mean_motion_dot": 0.00013869,
        "meta_mean_motion_ddot": 0,
        "tle_line1": "1 32432U 99025DAU 25340.34672104  .00013869  00000+0  28069-2 0  9993",
        "tle_line2": "2 32432  98.1700  16.6935 0172986 325.5072  33.4994 14.52336572706023"
      },
      "geometry": {
        "type": "Point",
        "coordinates": [
          15.78387613686374,
          12.672984451871462
        ]
      }
    },
    {
      "type": "Feature",
      "properties": {
        "norad_id": 32440,
        "name": "FENGYUN 1C DEB",
        "group": "fengyun-1c-debris",
        "lat": -60.392497343355096,
        "lon": -146.62848513629203,
        "alt_km": 1269.6421149227745,
        "timestamp": "2025-12-07T07:31:36.584961+00:00",
        "meta_object_name": "FENGYUN 1C DEB",
        "meta_object_id": "1999-025DBC",
        "meta_epoch": "2025-12-05T08:12:44.739072",
        "meta_mean_motion": 13.61195229,
        "meta_eccentricity": 0.03213757,
        "meta_inclination": 99.1546,
        "meta_ra_of_asc_node": 195.0359,
        "meta_arg_of_pericenter": 110.0631,
        "meta_mean_anomaly": 253.5405,
        "meta_ephemeris_type": 0,
        "meta_classification_type": "U",
        "meta_norad_cat_id": 32440,
        "meta_element_set_no": 999,
        "meta_rev_at_epoch": 60185,
        "meta_bstar": 0.0046022853,
        "meta_mean_motion_dot": 4.901e-05,
        "meta_mean_motion_ddot": 0,
        "tle_line1": "1 32440U 99025DBC 25339.34218448  .00004901  00000+0  46023-2 0  9994",
        "tle_line2": "2 32440  99.1546 195.0359 0321375 110.0631 253.5405 13.61195229601857"
      },
      "geometry": {
        "type": "Point",
        "coordinates": [
          -146.62848513629203,
          -60.392497343355096
        ]
      }
    },
    {
      "type": "Feature",
      "properties": {
        "norad_id": 32447,
        "name": "FENGYUN 1C DEB",
        "group": "fengyun-1c-debris",
        "lat": -46.23688615273117,
        "lon": 168.15602028182184,
        "alt_km": 972.0106357268842,
        "timestamp": "2025-12-07T07:31:36.584971+00:00",
        "meta_object_name": "FENGYUN 1C DEB",
        "meta_object_id": "1999-025DBK",
        "meta_epoch": "2025-12-04T19:57:48.676032",
        "meta_mean_motion": 13.96007618,
        "meta_eccentricity": 0.00801771,
        "meta_inclination": 98.9313,
        "meta_ra_of_asc_node": 355.1998,
        "meta_arg_of_pericenter": 62.9072,
        "meta_mean_anomaly": 298.0242,
        "meta_ephemeris_type": 0,
        "meta_classification_type": "U",
        "meta_norad_cat_id": 32447,
        "meta_element_set_no": 999,
        "meta_rev_at_epoch": 67768,
        "meta_bstar": 0.00045058659,
        "meta_mean_motion_dot": 5.92e-06,
        "meta_mean_motion_ddot": 0,
        "tle_line1": "1 32447U 99025DBK 25338.83181338  .00000592  00000+0  45059-3 0  9992",
        "tle_line2": "2 32447  98.9313 355.1998 0080177  62.9072 298.0242 13.96007618677686"
      },
      "geometry": {
        "type": "Point",
        "coordinates": [
          168.15602028182184,
          -46.23688615273117
        ]
      }
    },
    {
      "type": "Feature",
      "properties": {
        "norad_id": 32451,
        "name": "FENGYUN 1C DEB",
        "group": "fengyun-1c-debris",
        "lat": 71.183837931953,
        "lon": -70.33963430112885,
        "alt_km": 1029.2765382802863,
        "timestamp": "2025-12-07T07:31:36.584981+00:00",
        "meta_object_name": "FENGYUN 1C DEB",
        "meta_object_id": "1999-025DBP",
        "meta_epoch": "2025-12-04T18:32:35.107584",
        "meta_mean_motion": 13.86510198,
        "meta_eccentricity": 0.01858286,
        "meta_inclination": 99.9695,
        "meta_ra_of_asc_node": 318.0312,
        "meta_arg_of_pericenter": 215.954,
        "meta_mean_anomaly": 142.8994,
        "meta_ephemeris_type": 0,
        "meta_classification_type": "U",
        "meta_norad_cat_id": 32451,
        "meta_element_set_no": 999,
        "meta_rev_at_epoch": 61654,
        "meta_bstar": 0.0037745112,
        "meta_mean_motion_dot": 4.97e-05,
        "meta_mean_motion_ddot": 0,
        "tle_line1": "1 32451U 99025DBP 25338.77262856  .00004970  00000+0  37745-2 0  9991",
        "tle_line2": "2 32451  99.9695 318.0312 0185828 215.9540 142.8994 13.86510198616541"
      },
      "geometry": {
        "type": "Point",
        "coordinates": [
          -70.33963430112885,
          71.183837931953
        ]
      }
    }
  ]
}